CCSDS_OMM_VERS = 2.0
CREATION_DATE  = 
ORIGINATOR     = 

OBJECT_NAME    = ALOS (DAICHI)
OBJECT_ID      = 2006-002A
CENTER_NAME    = EARTH
REF_FRAME      = TEME
TIME_SYSTEM    = UTC
MEAN_ELEMENT_THEORY = SGP/SGP4

EPOCH          = 2025-12-17T17:37:14.152512
MEAN_MOTION    = 14.69501788
ECCENTRICITY   = .00013612
INCLINATION    = 98.1098
RA_OF_ASC_NODE = 303.1864
ARG_OF_PERICENTER = 113.5739
MEAN_ANOMALY   = 246.5610

EPHEMERIS_TYPE = 0
CLASSIFICATION_TYPE = U
NORAD_CAT_ID   = 28931
ELEMENT_SET_NO = 999
REV_AT_EPOCH   = 6144
BSTAR          = .19545051E-3
MEAN_MOTION_DOT = .111E-4
MEAN_MOTION_DDOT = 0

CCSDS_OMM_VERS = 2.0
CREATION_DATE  = 
ORIGINATOR     = 

OBJECT_NAME    = H-2A R/B
OBJECT_ID      = 2006-002B
CENTER_NAME    = EARTH
REF_FRAME      = TEME
TIME_SYSTEM    = UTC
MEAN_ELEMENT_THEORY = SGP/SGP4

EPOCH          = 2026-01-01T06:32:23.977536
MEAN_MOTION    = 15.15012875
ECCENTRICITY   = .00546732
INCLINATION    = 98.2318
RA_OF_ASC_NODE = 142.6238
ARG_OF_PERICENTER = 110.5238
MEAN_ANOMALY   = 250.1871

EPHEMERIS_TYPE = 0
CLASSIFICATION_TYPE = U
NORAD_CAT_ID   = 28932
ELEMENT_SET_NO = 999
REV_AT_EPOCH   = 8422
BSTAR          = .80318741E-3
MEAN_MOTION_DOT = .15519E-3
MEAN_MOTION_DDOT = 0

CCSDS_OMM_VERS = 2.0
CREATION_DATE  = 
ORIGINATOR     = 

OBJECT_NAME    = RESURS-DK 1
OBJECT_ID      = 2006-021A
CENTER_NAME    = EARTH
REF_FRAME      = TEME
TIME_SYSTEM    = UTC
MEAN_ELEMENT_THEORY = SGP/SGP4

EPOCH          = 2026-01-01T06:39:42.522336
MEAN_MOTION    = 15.12290785
ECCENTRICITY   = .00070082
INCLINATION    = 69.9347
RA_OF_ASC_NODE = 51.3409
ARG_OF_PERICENTER = 242.0825
MEAN_ANOMALY   = 117.9631

EPHEMERIS_TYPE = 0
CLASSIFICATION_TYPE = U
NORAD_CAT_ID   = 29228
ELEMENT_SET_NO = 999
REV_AT_EPOCH   = 7733
BSTAR          = .28663529E-3
MEAN_MOTION_DOT = .487E-4
MEAN_MOTION_DDOT = 0

CCSDS_OMM_VERS = 2.0
CREATION_DATE  = 
ORIGINATOR     = 

OBJECT_NAME    = CZ-4B R/B
OBJECT_ID      = 2006-046C
CENTER_NAME    = EARTH
REF_FRAME      = TEME
TIME_SYSTEM    = UTC
MEAN_ELEMENT_THEORY = SGP/SGP4

EPOCH          = 2026-01-01T02:36:58.133952
MEAN_MOTION    = 15.16095392
ECCENTRICITY   = .00348367
INCLINATION    = 97.5714
RA_OF_ASC_NODE = 46.1951
ARG_OF_PERICENTER = 139.7008
MEAN_ANOMALY   = 220.6816

EPHEMERIS_TYPE = 0
CLASSIFICATION_TYPE = U
NORAD_CAT_ID   = 29507
ELEMENT_SET_NO = 999
REV_AT_EPOCH   = 4980
BSTAR          = .41716185E-3
MEAN_MOTION_DOT = .8092E-4
MEAN_MOTION_DDOT = 0

CCSDS_OMM_VERS = 2.0
CREATION_DATE  = 
ORIGINATOR     = 

OBJECT_NAME    = CZ-2C R/B
OBJECT_ID      = 2007-010B
CENTER_NAME    = EARTH
REF_FRAME      = TEME
TIME_SYSTEM    = UTC
MEAN_ELEMENT_THEORY = SGP/SGP4

EPOCH          = 2026-01-01T07:18:26.919936
MEAN_MOTION    = 14.20219085
ECCENTRICITY   = .00598368
INCLINATION    = 98.3975
RA_OF_ASC_NODE = 117.9709
ARG_OF_PERICENTER = 129.5785
MEAN_ANOMALY   = 231.0699

EPHEMERIS_TYPE = 0
CLASSIFICATION_TYPE = U
NORAD_CAT_ID   = 31114
ELEMENT_SET_NO = 999
REV_AT_EPOCH   = 97015
BSTAR          = .14866625E-3
MEAN_MOTION_DOT = .283E-5
MEAN_MOTION_DDOT = 0

CCSDS_OMM_VERS = 2.0
CREATION_DATE  = 
ORIGINATOR     = 

OBJECT_NAME    = COSMO-SKYMED 1
OBJECT_ID      = 2007-023A
CENTER_NAME    = EARTH
REF_FRAME      = TEME
TIME_SYSTEM    = UTC
MEAN_ELEMENT_THEORY = SGP/SGP4

EPOCH          = 2026-01-01T07:42:18.232704
MEAN_MOTION    = 14.95933169
ECCENTRICITY   = .00011612
INCLINATION    = 97.8827
RA_OF_ASC_NODE = 191.8502
ARG_OF_PERICENTER = 87.3404
MEAN_ANOMALY   = 272.7950

EPHEMERIS_TYPE = 0
CLASSIFICATION_TYPE = U
NORAD_CAT_ID   = 31598
ELEMENT_SET_NO = 999
REV_AT_EPOCH   = 483
BSTAR          = .5823667E-3
MEAN_MOTION_DOT = .6464E-4
MEAN_MOTION_DDOT = 0

CCSDS_OMM_VERS = 2.0
CREATION_DATE  = 
ORIGINATOR     = 

OBJECT_NAME    = COSMOS 2428
OBJECT_ID      = 2007-029A
CENTER_NAME    = EARTH
REF_FRAME      = TEME
TIME_SYSTEM    = UTC
MEAN_ELEMENT_THEORY = SGP/SGP4

EPOCH          = 2026-01-01T06:41:03.880032
MEAN_MOTION    = 14.12899899
ECCENTRICITY   = .0004791
INCLINATION    = 70.9377
RA_OF_ASC_NODE = 344.8555
ARG_OF_PERICENTER = 356.3812
MEAN_ANOMALY   = 3.7274

EPHEMERIS_TYPE = 0
CLASSIFICATION_TYPE = U
NORAD_CAT_ID   = 31792
ELEMENT_SET_NO = 999
REV_AT_EPOCH   = 95457
BSTAR          = .21674786E-3
MEAN_MOTION_DOT = .356E-5
MEAN_MOTION_DDOT = 0

CCSDS_OMM_VERS = 2.0
CREATION_DATE  = 
ORIGINATOR     = 

OBJECT_NAME    = SL-16 R/B
OBJECT_ID      = 2007-029B
CENTER_NAME    = EARTH
REF_FRAME      = TEME
TIME_SYSTEM    = UTC
MEAN_ELEMENT_THEORY = SGP/SGP4

EPOCH          = 2026-01-01T08:06:18.819648
MEAN_MOTION    = 14.14824124
ECCENTRICITY   = .00020266
INCLINATION    = 70.9773
RA_OF_ASC_NODE = 313.9607
ARG_OF_PERICENTER = 270.0741
MEAN_ANOMALY   = 205.1875

EPHEMERIS_TYPE = 0
CLASSIFICATION_TYPE = U
NORAD_CAT_ID   = 31793
ELEMENT_SET_NO = 999
REV_AT_EPOCH   = 95584
BSTAR          = .14565872E-3
MEAN_MOTION_DOT = .233E-5
MEAN_MOTION_DDOT = 0

CCSDS_OMM_VERS = 2.0
CREATION_DATE  = 
ORIGINATOR     = 

OBJECT_NAME    = KORONAS-FOTON
OBJECT_ID      = 2009-003A
CENTER_NAME    = EARTH
REF_FRAME      = TEME
TIME_SYSTEM    = UTC
MEAN_ELEMENT_THEORY = SGP/SGP4

EPOCH          = 2025-12-31T21:43:54.895872
MEAN_MOTION    = 15.41591643
ECCENTRICITY   = .0012841
INCLINATION    = 82.4306
RA_OF_ASC_NODE = 346.2394
ARG_OF_PERICENTER = 49.2391
MEAN_ANOMALY   = 310.9968

EPHEMERIS_TYPE = 0
CLASSIFICATION_TYPE = U
NORAD_CAT_ID   = 33504
ELEMENT_SET_NO = 999
REV_AT_EPOCH   = 93529
BSTAR          = .34407E-3
MEAN_MOTION_DOT = .1455E-3
MEAN_MOTION_DDOT = 0

CCSDS_OMM_VERS = 2.0
CREATION_DATE  = 
ORIGINATOR     = 

OBJECT_NAME    = CZ-2C R/B
OBJECT_ID      = 2011-030B
CENTER_NAME    = EARTH
REF_FRAME      = TEME
TIME_SYSTEM    = UTC
MEAN_ELEMENT_THEORY = SGP/SGP4

EPOCH          = 2026-01-01T08:01:30.300672
MEAN_MOTION    = 14.80970401
ECCENTRICITY   = .00520024
INCLINATION    = 97.8433
RA_OF_ASC_NODE = 320.0107
ARG_OF_PERICENTER = 208.2319
MEAN_ANOMALY   = 273.1006

EPHEMERIS_TYPE = 0
CLASSIFICATION_TYPE = U
NORAD_CAT_ID   = 37731
ELEMENT_SET_NO = 999
REV_AT_EPOCH   = 78012
BSTAR          = .31120798E-3
MEAN_MOTION_DOT = .2411E-4
MEAN_MOTION_DDOT = 0

CCSDS_OMM_VERS = 2.0
CREATION_DATE  = 
ORIGINATOR     = 

OBJECT_NAME    = H-2A R/B
OBJECT_ID      = 2012-025E
CENTER_NAME    = EARTH
REF_FRAME      = TEME
TIME_SYSTEM    = UTC
MEAN_ELEMENT_THEORY = SGP/SGP4

EPOCH          = 2025-12-31T22:07:45.934752
MEAN_MOTION    = 14.94586568
ECCENTRICITY   = .0044917
INCLINATION    = 98.4620
RA_OF_ASC_NODE = 322.6355
ARG_OF_PERICENTER = 172.4706
MEAN_ANOMALY   = 187.7196

EPHEMERIS_TYPE = 0
CLASSIFICATION_TYPE = U
NORAD_CAT_ID   = 38341
ELEMENT_SET_NO = 999
REV_AT_EPOCH   = 73809
BSTAR          = .41581E-3
MEAN_MOTION_DOT = .4521E-4
MEAN_MOTION_DDOT = 0

CCSDS_OMM_VERS = 2.0
CREATION_DATE  = 
ORIGINATOR     = 

OBJECT_NAME    = SHIJIAN-16 (SJ-16)
OBJECT_ID      = 2013-057A
CENTER_NAME    = EARTH
REF_FRAME      = TEME
TIME_SYSTEM    = UTC
MEAN_ELEMENT_THEORY = SGP/SGP4

EPOCH          = 2026-01-01T07:35:08.956032
MEAN_MOTION    = 14.92068467
ECCENTRICITY   = .0017899
INCLINATION    = 74.9734
RA_OF_ASC_NODE = 312.6108
ARG_OF_PERICENTER = 274.5396
MEAN_ANOMALY   = 85.3747

EPHEMERIS_TYPE = 0
CLASSIFICATION_TYPE = U
NORAD_CAT_ID   = 39358
ELEMENT_SET_NO = 999
REV_AT_EPOCH   = 66145
BSTAR          = .30781442E-3
MEAN_MOTION_DOT = .3107E-4
MEAN_MOTION_DDOT = 0

