ALOS (DAICHI)           
1 28931U 06002A   25351.73419158  .00001110  00000+0  19545-3 0  9994
2 28931  98.1098 303.1864 0001361 113.5739 246.5610 14.69501788 61443
H-2A R/B                
1 28932U 06002B   26001.27249974  .00015519  00000+0  80319-3 0  9999
2 28932  98.2318 142.6238 0054673 110.5238 250.1871 15.15012875 84223
RESURS-DK 1             
1 29228U 06021A   26001.27757549  .00004870  00000+0  28664-3 0  9994
2 29228  69.9347  51.3409 0007008 242.0825 117.9631 15.12290785 77331
CZ-4B R/B               
1 29507U 06046C   26001.10900618  .00008092  00000+0  41716-3 0  9993
2 29507  97.5714  46.1951 0034836 139.7008 220.6816 15.16095392 49803
CZ-2C R/B               
1 31114U 07010B   26001.30447824  .00000283  00000+0  14867-3 0  9990
2 31114  98.3975 117.9709 0059836 129.5785 231.0699 14.20219085970159
COSMO-SKYMED 1          
1 31598U 07023A   26001.32104436  .00006464  00000+0  58237-3 0  9997
2 31598  97.8827 191.8502 0001161  87.3404 272.7950 14.95933169  4837
COSMOS 2428             
1 31792U 07029A   26001.27851713  .00000356  00000+0  21675-3 0  9990
2 31792  70.9377 344.8555 0004791 356.3812   3.7274 14.12899899954573
SL-16 R/B               
1 31793U 07029B   26001.33771782  .00000233  00000+0  14566-3 0  9990
2 31793  70.9773 313.9607 0002026 270.0741 205.1875 14.14824124955848
KORONAS-FOTON           
1 33504U 09003A   25365.90549648  .00014550  00000+0  34407-3 0  9998
2 33504  82.4306 346.2394 0012841  49.2391 310.9968 15.41591643935298
CZ-2C R/B               
1 37731U 11030B   26001.33437848  .00002411  00000+0  31121-3 0  9993
2 37731  97.8433 320.0107 0052002 208.2319 273.1006 14.80970401780125
H-2A R/B                
1 38341U 12025E   25365.92205943  .00004521  00000+0  41581-3 0  9997
2 38341  98.4620 322.6355 0044917 172.4706 187.7196 14.94586568738090
SHIJIAN-16 (SJ-16)      
1 39358U 13057A   26001.31607588  .00003107  00000+0  30781-3 0  9993
2 39358  74.9734 312.6108 0017899 274.5396  85.3747 14.92068467661458
